OBJECT_NAME,OBJECT_ID,EPOCH,MEAN_MOTION,ECCENTRICITY,INCLINATION,RA_OF_ASC_NODE,ARG_OF_PERICENTER,MEAN_ANOMALY,EPHEMERIS_TYPE,CLASSIFICATION_TYPE,NORAD_CAT_ID,ELEMENT_SET_NO,REV_AT_EPOCH,BSTAR,MEAN_MOTION_DOT,MEAN_MOTION_DDOT
SWARM A,2013-067B,2026-07-10T06:01:12.410976,15.51394362,.0003321,87.3309,47.6672,95.5154,264.6486,0,U,39452,999,70982,.12632696E-3,.7476E-4,0
SWARM C,2013-067C,2026-07-10T06:01:04.157184,15.51393572,.00033037,87.3309,46.2480,95.3090,264.8548,0,U,39453,999,70978,.12846793E-3,.7602E-4,0
BRITE-CA1 (TORONTO),2014-033L,2026-07-09T04:30:04.468608,14.72715027,.00780057,97.9764,318.7133,205.5751,154.1590,0,U,40020,999,64545,.1176575E-3,.733E-5,0
OCO 2,2014-035A,2026-07-10T07:07:38.992512,14.57129994,.00014719,98.2021,132.2388,82.0243,278.1122,0,U,40059,999,63941,.61319398E-4,.231E-5,0
BRITE-PL2 (HEWELIUSZ),2014-049B,2026-07-10T06:27:33.976800,14.94677973,.00147276,97.9115,303.4501,38.1885,322.0375,0,U,40119,999,64489,.13523148E-3,.1409E-4,0
MMS 1,2015-011A,2026-07-10T08:00:03.000384,0.28368661,.83022016,72.4483,348.4908,167.9501,139.5561,0,U,40482,999,134,0,-.933E-5,0
MMS 2,2015-011B,2026-07-10T08:00:03.000384,0.28368166,.830484,72.4486,348.4907,167.9533,139.5425,0,U,40483,999,134,0,-.934E-5,0
MMS 3,2015-011C,2026-07-10T08:00:03.000384,0.28368167,.83032038,72.4483,348.5026,167.9610,139.5165,0,U,40484,999,131,0,-.933E-5,0
MMS 4,2015-011D,2026-07-10T08:00:03.000384,0.28368197,.83031457,72.4441,348.4860,167.9708,139.5110,0,U,40485,999,137,0,-.933E-5,0
ASTROSAT,2015-052A,2026-07-10T07:12:44.926272,14.82547743,.00079638,5.9979,348.9768,0.8776,359.1365,0,U,40930,999,58326,.7549534E-4,.1292E-4,0
DAMPE,2015-078A,2026-07-10T07:23:50.227872,15.30845595,.00121269,97.4567,196.8898,3.0273,357.1039,0,U,41173,999,58808,.33720746E-4,.929E-5,0
PISAT,2016-059B,2026-07-09T11:39:21.062880,14.69023153,.00301683,97.8187,189.9810,132.2855,228.0916,0,U,41784,999,52301,.11401738E-3,.626E-5,0
HXMT (HUIYAN),2017-034A,2026-07-10T02:09:21.063168,15.18660042,.00326976,43.0148,55.4962,289.6082,70.1239,0,U,42758,999,50114,.17546473E-3,.3508E-4,0
FLYING LAPTOP,2017-042G,2026-07-10T07:32:59.917632,15.01291877,.00198656,97.4787,345.9737,47.9662,312.3249,0,U,42831,999,48992,.17529969E-3,.2206E-4,0
ZHANGHENG 1-01 (CSES-1),2018-015C,2026-07-10T07:08:11.281920,15.20566918,.0015947,97.6884,357.4203,181.6631,178.4554,0,U,43194,999,46815,.20857293E-3,.4508E-4,0
SALSAT,2020-068K,2026-07-09T06:02:33.013536,15.30117525,.00085936,97.8858,194.6644,215.0810,144.9864,0,U,46495,999,31873,.19084228E-3,.5482E-4,0
IXPE,2021-121A,2026-07-10T08:00:03.000384,15.10462088,.00068182,0.2291,141.9508,72.7400,84.2318,0,U,49954,999,590,.4944395E-3,.9313E-4,0
