SWARM A                 
1 39452U 13067B   26191.25083809  .00007476  00000+0  12633-3 0  9995
2 39452  87.3309  47.6672 0003321  95.5154 264.6486 15.51394362709826
SWARM C                 
1 39453U 13067C   26191.25074256  .00007602  00000+0  12847-3 0  9990
2 39453  87.3309  46.2480 0003303  95.3090 264.8548 15.51393572709784
BRITE-CA1 (TORONTO)     
1 40020U 14033L   26190.18755172  .00000733  00000+0  11766-3 0  9997
2 40020  97.9764 318.7133 0078005 205.5751 154.1590 14.72715027645456
OCO 2                   
1 40059U 14035A   26191.29697908  .00000231  00000+0  61319-4 0  9999
2 40059  98.2021 132.2388 0001471  82.0243 278.1122 14.57129994639418
BRITE-PL2 (HEWELIUSZ)   
1 40119U 14049B   26191.26914325  .00001409  00000+0  13523-3 0  9994
2 40119  97.9115 303.4501 0014727  38.1885 322.0375 14.94677973644899
MMS 1                   
1 40482U 15011A   26191.33336806 -.00000933  00000+0  00000+0 0  9991
2 40482  72.4483 348.4908 8302201 167.9501 139.5561  0.28368661  1347
MMS 2                   
1 40483U 15011B   26191.33336806 -.00000934  00000+0  00000+0 0  9993
2 40483  72.4486 348.4907 8304840 167.9533 139.5425  0.28368166  1345
MMS 3                   
1 40484U 15011C   26191.33336806 -.00000933  00000+0  00000+0 0  9993
2 40484  72.4483 348.5026 8303203 167.9610 139.5165  0.28368167  1313
MMS 4                   
1 40485U 15011D   26191.33336806 -.00000933  00000+0  00000+0 0  9994
2 40485  72.4441 348.4860 8303145 167.9708 139.5110  0.28368197  1375
ASTROSAT                
1 40930U 15052A   26191.30051998  .00001292  00000+0  75495-4 0  9990
2 40930   5.9979 348.9768 0007963   0.8776 359.1365 14.82547743583266
DAMPE                   
1 41173U 15078A   26191.30822023  .00000929  00000+0  33721-4 0  9995
2 41173  97.4567 196.8898 0012126   3.0273 357.1039 15.30845595588084
PISAT                   
1 41784U 16059B   26190.48566045  .00000626  00000+0  11402-3 0  9995
2 41784  97.8187 189.9810 0030168 132.2855 228.0916 14.69023153523019
HXMT (HUIYAN)           
1 42758U 17034A   26191.08982712  .00003508  00000+0  17546-3 0  9998
2 42758  43.0148  55.4962 0032697 289.6082  70.1239 15.18660042501147
FLYING LAPTOP           
1 42831U 17042G   26191.31458238  .00002206  00000+0  17530-3 0  9993
2 42831  97.4787 345.9737 0019865  47.9662 312.3249 15.01291877489920
ZHANGHENG 1-01 (CSES-1) 
1 43194U 18015C   26191.29735280  .00004508  00000+0  20857-3 0  9992
2 43194  97.6884 357.4203 0015947 181.6631 178.4554 15.20566918468152
SALSAT                  
1 46495U 20068K   26190.25177099  .00005482  00000+0  19084-3 0  9995
2 46495  97.8858 194.6644 0008593 215.0810 144.9864 15.30117525318739
IXPE                    
1 49954U 21121A   26191.33336806  .00009313  00000+0  49444-3 0  9992
2 49954   0.2291 141.9508 0006818  72.7400  84.2318 15.10462088  5903
